NORAD_CAT_ID,OBJECT_NAME,OBJECT_TYPE,EPOCH,MEAN_MOTION,ECCENTRICITY,INCLINATION,RA_OF_ASC_NODE,ARG_OF_PERICENTER,MEAN_ANOMALY,BSTAR,MEAN_MOTION_DOT,MEAN_MOTION_DDOT,TLE_LINE0,TLE_LINE1,TLE_LINE2,SEMIMAJOR_AXIS,PERIOD,APOGEE,PERIGEE,DECAYED
52498.0,STARLINK-3925,PAYLOAD,2022-09-05 22:00:00,15.0883016,0.0001615,53.2133,28.7361,52.8039,356.2335,-0.0018587,-0.0002973999999999,0.0,0 STARLINK-3925,1 52498U 22049AZ  22248.91667824 -.00029740  00000-0 -18587-2 0  9991,2 52498  53.2133  28.7361 0001615  52.8039 356.2335 15.08830160  1307,6917.91,95.438,540.893,538.658,0.0
52498.0,STARLINK-3925,PAYLOAD,2022-09-06 14:00:01,15.08822162,0.0001557,53.2134,25.7427,56.636,15.5151,-0.0013083,-0.00021039,0.0,0 STARLINK-3925,1 52498U 22049AZ  22249.58334491 -.00021039  00000-0 -13083-2 0  9995,2 52498  53.2134  25.7427 0001557  56.6360  15.5151 15.08822162  1306,6917.935,95.439,540.877,538.7230000000002,0.0
52498.0,STARLINK-3925,PAYLOAD,2022-09-06 22:00:00,15.08785247,0.0001359,53.2137,24.2457,58.8303,24.7467,0.0057973,0.00093057,0.0,0 STARLINK-3925,1 52498U 22049AZ  22249.91667824  .00093057  00000-0  57973-2 0  9994,2 52498  53.2137  24.2457 0001359  58.8303  24.7467 15.08785247 19489,6918.0480000000025,95.441,540.8530000000002,538.9730000000002,0.0
52498.0,STARLINK-3925,PAYLOAD,2022-09-07 14:00:01,15.08862712,0.0001317,53.2136,21.2533,59.5648,47.1823,-0.001355,-0.00021801,0.0,0 STARLINK-3925,1 52498U 22049AZ  22250.58334491 -.00021801  00000-0 -13550-2 0  9993,2 52498  53.2136  21.2533 0001317  59.5648  47.1823 15.08862712 19583,6917.811,95.436,540.587,538.765,0.0
52498.0,STARLINK-3925,PAYLOAD,2022-09-07 22:00:00,15.08878352,0.0001396999999999,53.2137,19.7569,53.1126,65.2522,-0.0018483,-0.00029614,0.0,0 STARLINK-3925,1 52498U 22049AZ  22250.91667824 -.00029614  00000-0 -18483-2 0  9999,2 52498  53.2137  19.7569 0001397  53.1126  65.2522 15.08878352  1309,6917.763000000001,95.435,540.595,538.6619999999998,0.0
52498.0,STARLINK-3925,PAYLOAD,2022-09-08 06:00:00,15.08829417,0.0001325,53.2141,18.2587,63.0022,67.0074,0.0033033999999999,0.00052663,0.0,0 STARLINK-3925,1 52498U 22049AZ  22251.25001157  .00052663  00000-0  33034-2 0  9995,2 52498  53.2141  18.2587 0001325  63.0022  67.0074 15.08829417 19684,6917.913000000001,95.438,540.694,538.861,0.0
52498.0,STARLINK-3925,PAYLOAD,2022-09-08 14:00:01,15.08870485,0.0001508,53.2143,16.7636,59.4121,82.1973,-0.001574,-0.00025272,0.0,0 STARLINK-3925,1 52498U 22049AZ  22251.58334491 -.00025272  00000-0 -15740-2 0  9993,2 52498  53.2143  16.7636 0001508  59.4121  82.1973 15.08870485  1303,6917.7869999999975,95.436,540.695,538.609,0.0
52498.0,STARLINK-3925,PAYLOAD,2022-09-08 22:00:00,15.08868139,0.0001564,53.2144,15.2671,55.6712,97.5642,-0.0016557,-0.00026562,0.0,0 STARLINK-3925,1 52498U 22049AZ  22251.91667824 -.00026562  00000-0 -16557-2 0  9999,2 52498  53.2144  15.2671 0001564  55.6712  97.5642 15.08868139 19780,6917.794,95.436,540.741,538.577,0.0
52498.0,STARLINK-3925,PAYLOAD,2022-09-09 14:00:01,15.08844326,0.0001546,53.215,12.2741,57.4081,119.043,-0.00063804,-0.00010429,0.0,0 STARLINK-3925,1 52498U 22049AZ  22252.58334491 -.00010429  00000-0 -63804-3 0  9997,2 52498  53.2150  12.2741 0001546  57.4081 119.0430 15.08844326  1307,6917.8669999999975,95.437,540.802,538.663,0.0
52498.0,STARLINK-3925,PAYLOAD,2022-09-09 22:00:00,15.08858699,0.0001591,53.2149,10.7776,55.2608,132.7829,-0.0029125999999999,-0.00046368,0.0,0 STARLINK-3925,1 52498U 22049AZ  22252.91667824 -.00046368  00000-0 -29126-2 0  9992,2 52498  53.2149  10.7776 0001591  55.2608 132.7829 15.08858699 19937,6917.823,95.436,540.789,538.5880000000002,0.0
52498.0,STARLINK-3925,PAYLOAD,2022-09-10 14:00:01,15.0884893,0.0001604,53.2153,7.785,58.3452,152.8975,-0.00054776,-8.997e-05,0.0,0 STARLINK-3925,1 52498U 22049AZ  22253.58334491 -.00008997  00000-0 -54776-3 0  9993,2 52498  53.2153   7.7850 0001604  58.3452 152.8975 15.08848930 20032,6917.853,95.437,540.828,538.6080000000002,0.0
52498.0,STARLINK-3925,PAYLOAD,2022-09-10 22:00:00,15.08876064,0.0001547,53.2151,6.2883,55.2733,167.5739,-0.0050466,-0.00079794,0.0,0 STARLINK-3925,1 52498U 22049AZ  22253.91667824 -.00079794  00000-0 -50466-2 0  9993,2 52498  53.2151   6.2883 0001547  55.2733 167.5739 15.08876064  1303,6917.77,95.435,540.705,538.565,0.0
52498.0,STARLINK-3925,PAYLOAD,2022-09-11 14:00:01,15.08823684,0.0001585,53.2152,3.2961,57.8549,188.171,0.0001816,2.602e-05,0.0,0 STARLINK-3925,1 52498U 22049AZ  22254.58334491  .00002602  00000-0  18160-3 0  9996,2 52498  53.2152   3.2961 0001585  57.8549 188.1710 15.08823684  1301,6917.93,95.439,540.8919999999998,538.6990000000002,0.0
52498.0,STARLINK-3925,PAYLOAD,2022-09-11 22:00:00,15.08858809,0.0001568,53.2149,1.7993,57.2244,200.3716,-0.0030786,-0.00048976,0.0,0 STARLINK-3925,1 52498U 22049AZ  22254.91667824 -.00048976  00000-0 -30786-2 0  9995,2 52498  53.2149   1.7993 0001568  57.2244 200.3716 15.08858809 20246,6917.823,95.436,540.773,538.6030000000002,0.0
52498.0,STARLINK-3925,PAYLOAD,2022-09-12 12:00:00,15.08841264,0.0001638,53.2148,359.181,61.3922,126.493,-0.00057676,-9.456e-05,0.0,0 STARLINK-3925,1 52498U 22049AZ  22255.50001157 -.00009456  00000-0 -57676-3 0  9990,2 52498  53.2148 359.1810 0001638  61.3922 126.4930 15.08841264 20322,6917.877,95.437,540.875,538.6080000000002,0.0
52498.0,STARLINK-3925,PAYLOAD,2022-09-12 14:00:01,15.08833225,0.0001696,53.2147,358.8073,59.3408,221.4447,0.00059879,9.253e-05,0.0,0 STARLINK-3925,1 52498U 22049AZ  22255.58334491  .00009253  00000-0  59879-3 0  9998,2 52498  53.2147 358.8073 0001696  59.3408 221.4447 15.08833225  1302,6917.901,95.438,540.939,538.5930000000002,0.0
52498.0,STARLINK-3925,PAYLOAD,2022-09-12 22:00:00,15.08866081,0.0001608,53.2143,357.3102,58.7549,233.6178,-0.0012586,-0.00020277,0.0,0 STARLINK-3925,1 52498U 22049AZ  22255.91667824 -.00020277  00000-0 -12586-2 0  9998,2 52498  53.2143 357.3102 0001608  58.7549 233.6178 15.08866081  1309,6917.801,95.436,540.778,538.553,0.0
52498.0,STARLINK-3925,PAYLOAD,2022-09-13 06:00:00,15.08856185,0.0001501999999999,53.2144,355.8127,64.9671,239.025,-3.2782e-05,-8.1e-06,0.0,0 STARLINK-3925,1 52498U 22049AZ  22256.25001157 -.00000810  00000-0 -32782-4 0  9990,2 52498  53.2144 355.8127 0001502  64.9671 239.0250 15.08856185 20449,6917.831,95.437,540.735,538.6569999999998,0.0
52498.0,STARLINK-3925,PAYLOAD,2022-09-13 14:00:01,15.08854055,0.0001603,53.2142,354.3181,55.6785,259.9283,-0.00058938,-9.659e-05,0.0,0 STARLINK-3925,1 52498U 22049AZ  22256.58334491 -.00009659  00000-0 -58938-3 0  9996,2 52498  53.2142 354.3181 0001603  55.6785 259.9283 15.08854055  1301,6917.837,95.437,540.811,538.5930000000002,0.0
52498.0,STARLINK-3925,PAYLOAD,2022-09-13 22:00:00,15.08897627,0.0001546,53.215,352.8183,53.4931,273.7159,-0.0096665,-0.00151158,0.0,0 STARLINK-3925,1 52498U 22049AZ  22256.91667824 -.00151158  00000-0 -96665-2 0  9992,2 52498  53.2150 352.8183 0001546  53.4931 273.7159 15.08897627  1308,6917.704000000002,95.434,540.639,538.5,0.0
52498.0,STARLINK-3925,PAYLOAD,2022-09-14 06:00:00,15.08794964,0.0001514,53.214,351.3234,63.9399,274.8482,0.0025436,0.00040376,0.0,0 STARLINK-3925,1 52498U 22049AZ  22257.25001157  .00040376  00000-0  25436-2 0  9996,2 52498  53.2140 351.3234 0001514  63.9399 274.8482 15.08794964 20590,6918.018,95.44,540.93,538.836,0.0
52498.0,STARLINK-3925,PAYLOAD,2022-09-14 14:00:01,15.08802069,0.0001599,53.2167,349.8239,53.9013,296.4637,0.0030625,0.00048738,0.0,0 STARLINK-3925,1 52498U 22049AZ  22257.58334491  .00048738  00000-0  30625-2 0  9998,2 52498  53.2167 349.8239 0001599  53.9013 296.4637 15.08802069  1307,6917.996,95.44,540.9680000000002,538.755,0.0
52498.0,STARLINK-3925,PAYLOAD,2022-09-14 22:00:00,15.08842509,0.0001619,53.2138,348.3314,55.1591,306.7499,-0.0013843,-0.00022253,0.0,0 STARLINK-3925,1 52498U 22049AZ  22257.91667824 -.00022253  00000-0 -13843-2 0  9993,2 52498  53.2138 348.3314 0001619  55.1591 306.7499 15.08842509 20698,6917.873000000001,95.437,540.8580000000002,538.618,0.0
52498.0,STARLINK-3925,PAYLOAD,2022-09-15 14:00:01,15.08863345,0.0001713,53.214,345.3393,53.5718,331.5365,-0.0014557,-0.00023396,0.0,0 STARLINK-3925,1 52498U 22049AZ  22258.58334491 -.00023396  00000-0 -14557-2 0  9990,2 52498  53.2140 345.3393 0001713  53.5718 331.5365 15.08863345  1309,6917.809,95.436,540.859,538.489,0.0
52498.0,STARLINK-3925,PAYLOAD,2022-09-15 16:00:00,15.08845369,0.0001686999999999,53.214,344.9653,51.5222,66.4958,0.0005982,9.247e-05,0.0,0 STARLINK-3925,1 52498U 22049AZ  22258.66667824  .00009247  00000-0  59820-3 0  9998,2 52498  53.2140 344.9653 0001687  51.5222  66.4958 15.08845369  1309,6917.864000000001,95.437,540.896,538.562,0.0
52498.0,STARLINK-3925,PAYLOAD,2022-09-15 23:25:42,15.08859867,0.0001791,53.2139,343.5747,55.1238,304.9923,0.00098081,0.00015365,0.0,0 STARLINK-3925,1 52498U 22049AZ  22258.97618323  .00015365  00000-0  98081-3 0  9992,2 52498  53.2139 343.5747 0001791  55.1238 304.9923 15.08859867 20850,6917.82,95.436,540.924,538.446,0.0
52498.0,STARLINK-3925,PAYLOAD,2022-09-16 10:33:23,15.08854387,0.0001355,53.213,341.4909,87.04700000000004,273.0677,0.00020894,3.04e-05,0.0,0 STARLINK-3925,1 52498U 22049AZ  22259.43985788  .00003040  00000-0  20894-3 0  9990,2 52498  53.2130 341.4909 0001355  87.0470 273.0677 15.08854387 20760,6917.8359999999975,95.437,540.639,538.764,0.0
52498.0,STARLINK-3925,PAYLOAD,2022-09-17 05:38:02,15.08829651,0.0001530999999999,53.2142,337.9235,59.5074,300.6069,-1.8641e-05,-5.85e-06,0.0,0 STARLINK-3925,1 52498U 22049AZ  22260.23474753 -.00000585  00000-0 -18641-4 0  9996,2 52498  53.2142 337.9235 0001531  59.5074 300.6069 15.08829651 21045,6917.9119999999975,95.438,540.836,538.7180000000002,0.0
52498.0,STARLINK-3925,PAYLOAD,2022-09-17 11:59:34,15.08834238,0.0001574,53.2145,336.7342,57.3754,302.7390000000001,-5.7464e-05,-1.202e-05,0.0,0 STARLINK-3925,1 52498U 22049AZ  22260.49971063 -.00001202  00000-0 -57464-4 0  9993,2 52498  53.2145 336.7342 0001574  57.3754 302.7390 15.08834238 20925,6917.898,95.438,540.852,538.674,0.0
